start=new Date('2023-03-09T00:00:00.000Z').valueOf();
sats=[{"CENTER_NAME":"EARTH","TLE_LINE2":"2 46543  53.0533  59.9024 0001896  87.4361 272.6845 15.06413998134227","PERIAPSIS":"545.858","BSTAR":"0.00198830000000","SEMIMAJOR_AXIS":"6925.306","APOAPSIS":"548.484","GP_ID":"227698320","RA_OF_ASC_NODE":"59.9024","FILE":"3855038","LAUNCH_DATE":"2020-10-06","DECAY_DATE":null,"PERIOD":"95.591","MEAN_MOTION_DDOT":"0.0000000000000","SITE":"AFETR","MEAN_ELEMENT_THEORY":"SGP4","NORAD_CAT_ID":"46543","OBJECT_TYPE":"PAYLOAD","EPOCH":"2023-03-08T23:42:27.730944","REV_AT_EPOCH":"13422","CLASSIFICATION_TYPE":"U","TLE_LINE1":"1 46543U 20070M   23067.98782096  .00029470  00000-0  19883-2 0  9991","INCLINATION":"53.0533","ECCENTRICITY":"0.00018960","ARG_OF_PERICENTER":"87.4361","RCS_SIZE":"LARGE","TIME_SYSTEM":"UTC","ELEMENT_SET_NO":"999","MEAN_ANOMALY":"272.6845","OBJECT_NAME":"STARLINK-1693","MEAN_MOTION_DOT":"0.00029470","REF_FRAME":"TEME","EPHEMERIS_TYPE":"0","MEAN_MOTION":"15.06413998","OBJECT_ID":"2020-070M","COUNTRY_CODE":"US"},{"TLE_LINE2":"2 46544  53.0524  46.4108 0001294 104.0192 256.0941 15.06401970134367","CENTER_NAME":"EARTH","APOAPSIS":"548.104","GP_ID":"227718534","RA_OF_ASC_NODE":"46.4108","PERIAPSIS":"546.311","BSTAR":"0.00050076000000","SEMIMAJOR_AXIS":"6925.343","PERIOD":"95.592","MEAN_MOTION_DDOT":"0.0000000000000","DECAY_DATE":null,"FILE":"3855077","LAUNCH_DATE":"2020-10-06","SITE":"AFETR","EPOCH":"2023-03-08T15:38:47.279040","OBJECT_TYPE":"PAYLOAD","MEAN_ELEMENT_THEORY":"SGP4","NORAD_CAT_ID":"46544","ECCENTRICITY":"0.00012940","ARG_OF_PERICENTER":"104.0192","TLE_LINE1":"1 46544U 20070N   23067.65193610  .00007186  00000-0  50076-3 0  9994","INCLINATION":"53.0524","CLASSIFICATION_TYPE":"U","REV_AT_EPOCH":"13436","MEAN_MOTION_DOT":"0.00007186","OBJECT_NAME":"STARLINK-1694","MEAN_ANOMALY":"256.0941","ELEMENT_SET_NO":"999","RCS_SIZE":"LARGE","TIME_SYSTEM":"UTC","COUNTRY_CODE":"US","OBJECT_ID":"2020-070N","MEAN_MOTION":"15.06401970","REF_FRAME":"TEME","EPHEMERIS_TYPE":"0"},{"SITE":"AFETR","FILE":"3855077","LAUNCH_DATE":"2020-10-06","DECAY_DATE":null,"MEAN_MOTION_DDOT":"0.0000000000000","PERIOD":"95.592","BSTAR":"0.00021521000000","PERIAPSIS":"546.934","SEMIMAJOR_AXIS":"6925.349","APOAPSIS":"547.495","RA_OF_ASC_NODE":"61.2240","GP_ID":"227718284","CENTER_NAME":"EARTH","TLE_LINE2":"2 46545  53.0536  61.2240 0000405 152.6467 207.4543 15.06399842134159","REF_FRAME":"TEME","EPHEMERIS_TYPE":"0","MEAN_MOTION":"15.06399842","OBJECT_ID":"2020-070P","COUNTRY_CODE":"US","RCS_SIZE":"LARGE","TIME_SYSTEM":"UTC","ELEMENT_SET_NO":"999","MEAN_ANOMALY":"207.4543","MEAN_MOTION_DOT":"0.00002926","OBJECT_NAME":"STARLINK-1696","CLASSIFICATION_TYPE":"U","REV_AT_EPOCH":"13415","TLE_LINE1":"1 46545U 20070P   23067.69294026  .00002926  00000-0  21521-3 0  9992","INCLINATION":"53.0536","ECCENTRICITY":"0.00004050","ARG_OF_PERICENTER":"152.6467","MEAN_ELEMENT_THEORY":"SGP4","NORAD_CAT_ID":"46545","OBJECT_TYPE":"PAYLOAD","EPOCH":"2023-03-08T16:37:50.038464"},{"ELEMENT_SET_NO":"999","TIME_SYSTEM":"UTC","RCS_SIZE":"LARGE","OBJECT_NAME":"STARLINK-1697","MEAN_MOTION_DOT":"0.00023674","MEAN_ANOMALY":"282.0719","MEAN_MOTION":"15.06425059","EPHEMERIS_TYPE":"0","REF_FRAME":"TEME","COUNTRY_CODE":"US","OBJECT_ID":"2020-070Q","OBJECT_TYPE":"PAYLOAD","NORAD_CAT_ID":"46546","MEAN_ELEMENT_THEORY":"SGP4","EPOCH":"2023-03-09T00:14:18.978432","INCLINATION":"53.0527","TLE_LINE1":"1 46546U 20070Q   23068.00994188  .00023674  00000-0  16018-2 0  9992","CLASSIFICATION_TYPE":"U","REV_AT_EPOCH":"13391","ARG_OF_PERICENTER":"78.0373","ECCENTRICITY":"0.00009240","DECAY_DATE":null,"LAUNCH_DATE":"2020-10-06","FILE":"3855038","PERIOD":"95.591","MEAN_MOTION_DDOT":"0.0000000000000","SITE":"AFETR","CENTER_NAME":"EARTH","TLE_LINE2":"2 46546  53.0527  59.8018 0000924  78.0373 282.0719 15.06425059133916","RA_OF_ASC_NODE":"59.8018","GP_ID":"227698318","APOAPSIS":"547.777","SEMIMAJOR_AXIS":"6925.272","BSTAR":"0.00160180000000","PERIAPSIS":"546.497"},{"MEAN_MOTION_DOT":"0.00011749","OBJECT_NAME":"STARLINK-1698","MEAN_ANOMALY":"269.4070","ELEMENT_SET_NO":"999","RCS_SIZE":"LARGE","TIME_SYSTEM":"UTC","COUNTRY_CODE":"US","OBJECT_ID":"2020-070R","MEAN_MOTION":"15.06407624","REF_FRAME":"TEME","EPHEMERIS_TYPE":"0","EPOCH":"2023-03-08T23:19:52.024224","OBJECT_TYPE":"PAYLOAD","MEAN_ELEMENT_THEORY":"SGP4","NORAD_CAT_ID":"46547","ARG_OF_PERICENTER":"90.7103","ECCENTRICITY":"0.00016020","TLE_LINE1":"1 46547U 20070R   23067.97212991  .00011749  00000-0  80618-3 0  9991","INCLINATION":"53.0519","REV_AT_EPOCH":"13422","CLASSIFICATION_TYPE":"U","MEAN_MOTION_DDOT":"0.0000000000000","PERIOD":"95.592","DECAY_DATE":null,"FILE":"3855042","LAUNCH_DATE":"2020-10-06","SITE":"AFETR","TLE_LINE2":"2 46547  53.0519  59.9636 0001602  90.7103 269.4070 15.06407624134223","CENTER_NAME":"EARTH","APOAPSIS":"548.300","RA_OF_ASC_NODE":"59.9636","GP_ID":"227698481","BSTAR":"0.00080618000000","PERIAPSIS":"546.081","SEMIMAJOR_AXIS":"6925.325"},{"SITE":"AFETR","DECAY_DATE":null,"LAUNCH_DATE":"2020-10-06","FILE":"3855077","PERIOD":"95.591","MEAN_MOTION_DDOT":"0.0000000000000","GP_ID":"227718034","RA_OF_ASC_NODE":"61.1089","APOAPSIS":"548.187","SEMIMAJOR_AXIS":"6925.305","BSTAR":"0.00321950000000","PERIAPSIS":"546.153","CENTER_NAME":"EARTH","TLE_LINE2":"2 46548  53.0529  61.1089 0001468  76.4591 283.6562 15.06414199134166","MEAN_MOTION":"15.06414199","EPHEMERIS_TYPE":"0","REF_FRAME":"TEME","COUNTRY_CODE":"US","OBJECT_ID":"2020-070S","ELEMENT_SET_NO":"999","TIME_SYSTEM":"UTC","RCS_SIZE":"LARGE","OBJECT_NAME":"STARLINK-1699","MEAN_MOTION_DOT":"0.00048019","MEAN_ANOMALY":"283.6562","INCLINATION":"53.0529","TLE_LINE1":"1 46548U 20070S   23067.71875093  .00048019  00000-0  32195-2 0  9998","CLASSIFICATION_TYPE":"U","REV_AT_EPOCH":"13416","ARG_OF_PERICENTER":"76.4591","ECCENTRICITY":"0.00014680","OBJECT_TYPE":"PAYLOAD","NORAD_CAT_ID":"46548","MEAN_ELEMENT_THEORY":"SGP4","EPOCH":"2023-03-08T17:15:00.080352"},{"MEAN_ANOMALY":"265.9657","OBJECT_NAME":"STARLINK-1700","MEAN_MOTION_DOT":"0.00028404","TIME_SYSTEM":"UTC","RCS_SIZE":"LARGE","ELEMENT_SET_NO":"999","OBJECT_ID":"2020-070T","COUNTRY_CODE":"US","EPHEMERIS_TYPE":"0","REF_FRAME":"TEME","MEAN_MOTION":"15.06417277","EPOCH":"2023-03-08T16:21:54.746496","NORAD_CAT_ID":"46549","MEAN_ELEMENT_THEORY":"SGP4","OBJECT_TYPE":"PAYLOAD","ARG_OF_PERICENTER":"94.1531","ECCENTRICITY":"0.00017460","CLASSIFICATION_TYPE":"U","REV_AT_EPOCH":"13415","INCLINATION":"53.0526","TLE_LINE1":"1 46549U 20070T   23067.68188364  .00028404  00000-0  19172-2 0  9999","PERIOD":"95.591","MEAN_MOTION_DDOT":"0.0000000000000","LAUNCH_DATE":"2020-10-06","FILE":"3855077","DECAY_DATE":null,"SITE":"AFETR","TLE_LINE2":"2 46549  53.0526  61.2755 0001746  94.1531 265.9657 15.06417277134152","CENTER_NAME":"EARTH","SEMIMAJOR_AXIS":"6925.296","BSTAR":"0.00191720000000","PERIAPSIS":"545.951","RA_OF_ASC_NODE":"61.2755","GP_ID":"227718785","APOAPSIS":"548.370"},{"OBJECT_TYPE":"PAYLOAD","NORAD_CAT_ID":"46550","MEAN_ELEMENT_THEORY":"SGP4","EPOCH":"2023-03-08T23:58:22.966752","INCLINATION":"53.0546","TLE_LINE1":"1 46550U 20070U   23067.99887693  .00040782  00000-0  27394-2 0  9994","CLASSIFICATION_TYPE":"U","REV_AT_EPOCH":"13422","ECCENTRICITY":"0.00013890","ARG_OF_PERICENTER":"104.6393","ELEMENT_SET_NO":"999","TIME_SYSTEM":"UTC","RCS_SIZE":"LARGE","OBJECT_NAME":"STARLINK-1701","MEAN_MOTION_DOT":"0.00040782","MEAN_ANOMALY":"255.4750","MEAN_MOTION":"15.06421250","EPHEMERIS_TYPE":"0","REF_FRAME":"TEME","COUNTRY_CODE":"US","OBJECT_ID":"2020-070U","CENTER_NAME":"EARTH","TLE_LINE2":"2 46550  53.0546  59.8518 0001389 104.6393 255.4750 15.06421250134224","GP_ID":"227698493","RA_OF_ASC_NODE":"59.8518","APOAPSIS":"548.110","SEMIMAJOR_AXIS":"6925.283","PERIAPSIS":"546.187","BSTAR":"0.00273940000000","DECAY_DATE":null,"LAUNCH_DATE":"2020-10-06","FILE":"3855039","MEAN_MOTION_DDOT":"0.0000000000000","PERIOD":"95.591","SITE":"AFETR"},{"CLASSIFICATION_TYPE":"U","REV_AT_EPOCH":"130","INCLINATION":"53.0367","TLE_LINE1":"1 46552U 20070W   23067.91667824  .00444755  00000-0  15490-2 0  9992","ECCENTRICITY":"0.00075260","ARG_OF_PERICENTER":"168.2202","NORAD_CAT_ID":"46552","MEAN_ELEMENT_THEORY":"SGP4","OBJECT_TYPE":"PAYLOAD","EPOCH":"2023-03-08T22:00:00.999936","EPHEMERIS_TYPE":"0","REF_FRAME":"TEME","MEAN_MOTION":"15.87670615","OBJECT_ID":"2020-070W","COUNTRY_CODE":"US","TIME_SYSTEM":"UTC","RCS_SIZE":"LARGE","ELEMENT_SET_NO":"999","MEAN_ANOMALY":"126.0314","OBJECT_NAME":"STARLINK-1649","MEAN_MOTION_DOT":"0.00444755","SEMIMAJOR_AXIS":"6686.952","BSTAR":"0.00154900000000","PERIAPSIS":"303.785","GP_ID":"227719780","RA_OF_ASC_NODE":"328.6869","APOAPSIS":"313.850","CENTER_NAME":"EARTH","TLE_LINE2":"2 46552  53.0367 328.6869 0007526 168.2202 126.0314 15.87670615  1308","SITE":"AFETR","LAUNCH_DATE":"2020-10-06","FILE":"3855077","DECAY_DATE":null,"PERIOD":"90.699","MEAN_MOTION_DDOT":"0.0000000000000"},{"TLE_LINE2":"2 46553  53.0545  30.2182 0001606 110.0992 250.0170 15.06427326134614","CENTER_NAME":"EARTH","APOAPSIS":"548.242","RA_OF_ASC_NODE":"30.2182","GP_ID":"227718535","PERIAPSIS":"546.018","BSTAR":"0.00263180000000","SEMIMAJOR_AXIS":"6925.265","PERIOD":"95.590","MEAN_MOTION_DDOT":"0.0000000000000","DECAY_DATE":null,"FILE":"3855077","LAUNCH_DATE":"2020-10-06","SITE":"AFETR","EPOCH":"2023-03-08T22:05:35.289312","OBJECT_TYPE":"PAYLOAD","MEAN_ELEMENT_THEORY":"SGP4","NORAD_CAT_ID":"46553","ECCENTRICITY":"0.00016060","ARG_OF_PERICENTER":"110.0992","TLE_LINE1":"1 46553U 20070X   23067.92054733  .00039167  00000-0  26318-2 0  9991","INCLINATION":"53.0545","REV_AT_EPOCH":"13461","CLASSIFICATION_TYPE":"U","OBJECT_NAME":"STARLINK-1664","MEAN_MOTION_DOT":"0.00039167","MEAN_ANOMALY":"250.0170","ELEMENT_SET_NO":"999","RCS_SIZE":"LARGE","TIME_SYSTEM":"UTC","COUNTRY_CODE":"US","OBJECT_ID":"2020-070X","MEAN_MOTION":"15.06427326","REF_FRAME":"TEME","EPHEMERIS_TYPE":"0"}];
